{
"type": "FeatureCollection",
"name": "pm_batalhoes_sedes_pontos_sp.geojson",
"crs": { "type": "name", "properties": { "name": "urn:ogc:def:crs:OGC:1.3:CRS84" } },
"features": [
{ "type": "Feature", "properties": { "nome_batalhao": "7º BPM/M", "tipo_batalhao": "Metropolitano", "id_comando": "CPA/M-1", "nome_comando": "1º Comando de Policiamento de Área Metropolitana (CPA/M-1)", "cidade_sede": "Sao Paulo", "endereco_sede": "AVENIDA ANGELICA, 1647, HIGIENÓPOLIS - Sao Paulo", "latitude_sede": -23.5470351, "longitude_sede": -46.6580278, "fonte_geocodificacao_sede": "Google Geocoding API", "fonte_geometria": null, "qt_municipios": null, "municipios_atendidos": null, "populacao_atendida": null }, "geometry": { "type": "Point", "coordinates": [ -46.6580278, -23.5470351 ] } },
{ "type": "Feature", "properties": { "nome_batalhao": "11º BPM/M", "tipo_batalhao": "Metropolitano", "id_comando": "CPA/M-1", "nome_comando": "1º Comando de Policiamento de Área Metropolitana (CPA/M-1)", "cidade_sede": "Sao Paulo", "endereco_sede": "RUA PROFESSOR ANTONIO PRUDENTE, 48, LIBERDADE - Sao Paulo", "latitude_sede": -23.564965, "longitude_sede": -46.6389864, "fonte_geocodificacao_sede": "Google Geocoding API", "fonte_geometria": null, "qt_municipios": null, "municipios_atendidos": null, "populacao_atendida": null }, "geometry": { "type": "Point", "coordinates": [ -46.6389864, -23.564965 ] } },
{ "type": "Feature", "properties": { "nome_batalhao": "13º BPM/M", "tipo_batalhao": "Metropolitano", "id_comando": "CPA/M-1", "nome_comando": "1º Comando de Policiamento de Área Metropolitana (CPA/M-1)", "cidade_sede": "Sao Paulo", "endereco_sede": "AVENIDA RIO BRANCO, 1289, CAMPOS ELÍSEOS - Sao Paulo", "latitude_sede": -23.5330101, "longitude_sede": -46.6453972, "fonte_geocodificacao_sede": "Google Geocoding API", "fonte_geometria": null, "qt_municipios": null, "municipios_atendidos": null, "populacao_atendida": null }, "geometry": { "type": "Point", "coordinates": [ -46.6453972, -23.5330101 ] } },
{ "type": "Feature", "properties": { "nome_batalhao": "1º BPM/M", "tipo_batalhao": "Metropolitano", "id_comando": "CPA/M-10", "nome_comando": "10º Comando de Policiamento de Área Metropolitana (CPA/M-10)", "cidade_sede": "Sao Paulo", "endereco_sede": "AVENIDA MARIO LOPES LEAO, 1050, SANTO AMARO - Sao Paulo", "latitude_sede": -23.6510621, "longitude_sede": -46.7153531, "fonte_geocodificacao_sede": "Google Geocoding API", "fonte_geometria": null, "qt_municipios": null, "municipios_atendidos": null, "populacao_atendida": null }, "geometry": { "type": "Point", "coordinates": [ -46.715353099999987, -23.6510621 ] } },
{ "type": "Feature", "properties": { "nome_batalhao": "22º BPM/M", "tipo_batalhao": "Metropolitano", "id_comando": "CPA/M-10", "nome_comando": "10º Comando de Policiamento de Área Metropolitana (CPA/M-10)", "cidade_sede": "Sao Paulo", "endereco_sede": "RUA DOUTOR PAULO AIRES NETO, 110, CAMPO GRANDE - Sao Paulo", "latitude_sede": -23.6537179, "longitude_sede": -46.6814936, "fonte_geocodificacao_sede": "Google Geocoding API", "fonte_geometria": null, "qt_municipios": null, "municipios_atendidos": null, "populacao_atendida": null }, "geometry": { "type": "Point", "coordinates": [ -46.6814936, -23.6537179 ] } },
{ "type": "Feature", "properties": { "nome_batalhao": "27º BPM/M", "tipo_batalhao": "Metropolitano", "id_comando": "CPA/M-10", "nome_comando": "10º Comando de Policiamento de Área Metropolitana (CPA/M-10)", "cidade_sede": "Sao Paulo", "endereco_sede": "RUA ROSALIA GRISI SANDOVAL, 270, PQ AMERICA - Sao Paulo", "latitude_sede": -23.7369281, "longitude_sede": -46.6912335, "fonte_geocodificacao_sede": "Google Geocoding API", "fonte_geometria": null, "qt_municipios": null, "municipios_atendidos": null, "populacao_atendida": null }, "geometry": { "type": "Point", "coordinates": [ -46.6912335, -23.7369281 ] } },
{ "type": "Feature", "properties": { "nome_batalhao": "37º BPM/M", "tipo_batalhao": "Metropolitano", "id_comando": "CPA/M-10", "nome_comando": "10º Comando de Policiamento de Área Metropolitana (CPA/M-10)", "cidade_sede": "Sao Paulo", "endereco_sede": "ESTRADA DE ITAPECERICA, 5650, JD ALVORADA - Sao Paulo", "latitude_sede": -23.6630297, "longitude_sede": -46.7816349, "fonte_geocodificacao_sede": "Google Geocoding API", "fonte_geometria": null, "qt_municipios": null, "municipios_atendidos": null, "populacao_atendida": null }, "geometry": { "type": "Point", "coordinates": [ -46.7816349, -23.6630297 ] } },
{ "type": "Feature", "properties": { "nome_batalhao": "8º BPM/M", "tipo_batalhao": "Metropolitano", "id_comando": "CPA/M-11", "nome_comando": "11º Comando de Policiamento de Área Metropolitana (CPA/M-11)", "cidade_sede": "Sao Paulo", "endereco_sede": "RUA VILELA, 307, TATUAPE - Sao Paulo", "latitude_sede": -23.5370472, "longitude_sede": -46.5666114, "fonte_geocodificacao_sede": "Google Geocoding API", "fonte_geometria": null, "qt_municipios": null, "municipios_atendidos": null, "populacao_atendida": null }, "geometry": { "type": "Point", "coordinates": [ -46.5666114, -23.5370472 ] } },
{ "type": "Feature", "properties": { "nome_batalhao": "21º BPM/M", "tipo_batalhao": "Metropolitano", "id_comando": "CPA/M-11", "nome_comando": "11º Comando de Policiamento de Área Metropolitana (CPA/M-11)", "cidade_sede": "Sao Paulo", "endereco_sede": "RUA CELSO DE AZEVEDO MARQUES, 454, MOOCA - Sao Paulo", "latitude_sede": -23.5690474, "longitude_sede": -46.5937819, "fonte_geocodificacao_sede": "Google Geocoding API", "fonte_geometria": null, "qt_municipios": null, "municipios_atendidos": null, "populacao_atendida": null }, "geometry": { "type": "Point", "coordinates": [ -46.5937819, -23.5690474 ] } },
{ "type": "Feature", "properties": { "nome_batalhao": "17º BPM/M", "tipo_batalhao": "Metropolitano", "id_comando": "CPA/M-12", "nome_comando": "12º Comando de Policiamento de Área Metropolitana (CPA/M-12)", "cidade_sede": "Mogi Das Cruzes", "endereco_sede": "RUA TENENTE JOSÉ ADOLFO DE MOURA SALLES, 61 - MOGI DAS CRUZES, 61, VILA VITORIA - Mogi Das Cruzes", "latitude_sede": -23.532096, "longitude_sede": -46.203689, "fonte_geocodificacao_sede": "Google Geocoding API", "fonte_geometria": null, "qt_municipios": null, "municipios_atendidos": null, "populacao_atendida": null }, "geometry": { "type": "Point", "coordinates": [ -46.203689, -23.532096 ] } },
{ "type": "Feature", "properties": { "nome_batalhao": "32º BPM/M", "tipo_batalhao": "Metropolitano", "id_comando": "CPA/M-12", "nome_comando": "12º Comando de Policiamento de Área Metropolitana (CPA/M-12)", "cidade_sede": "Suzano", "endereco_sede": "AVENIDA PAULISTA, 173 - SUZANO, 173, JD MONTE CRISTO - Suzano", "latitude_sede": -23.5296398, "longitude_sede": -46.3262584, "fonte_geocodificacao_sede": "Google Geocoding API", "fonte_geometria": null, "qt_municipios": null, "municipios_atendidos": null, "populacao_atendida": null }, "geometry": { "type": "Point", "coordinates": [ -46.3262584, -23.5296398 ] } },
{ "type": "Feature", "properties": { "nome_batalhao": "35º BPM/M", "tipo_batalhao": "Metropolitano", "id_comando": "CPA/M-12", "nome_comando": "12º Comando de Policiamento de Área Metropolitana (CPA/M-12)", "cidade_sede": "Itaquaquecetuba", "endereco_sede": "RUA SALESOPOLIS, 592 - ITAQUAQUECETUBA, 592, VL BARTIRA - Itaquaquecetuba", "latitude_sede": -23.4829977, "longitude_sede": -46.3745862, "fonte_geocodificacao_sede": "Google Geocoding API", "fonte_geometria": null, "qt_municipios": null, "municipios_atendidos": null, "populacao_atendida": null }, "geometry": { "type": "Point", "coordinates": [ -46.3745862, -23.4829977 ] } },
{ "type": "Feature", "properties": { "nome_batalhao": "3º BPM/M", "tipo_batalhao": "Metropolitano", "id_comando": "CPA/M-2", "nome_comando": "2º Comando de Policiamento de Área Metropolitana (CPA/M-2)", "cidade_sede": "Sao Paulo", "endereco_sede": "AVENIDA DO CAFE, 753  Vila Guarani, JABAQUARA - Sao Paulo", "latitude_sede": -23.6320588, "longitude_sede": -46.6362367, "fonte_geocodificacao_sede": "Google Geocoding API", "fonte_geometria": null, "qt_municipios": null, "municipios_atendidos": null, "populacao_atendida": null }, "geometry": { "type": "Point", "coordinates": [ -46.6362367, -23.6320588 ] } },
{ "type": "Feature", "properties": { "nome_batalhao": "12º BPM/M", "tipo_batalhao": "Metropolitano", "id_comando": "CPA/M-2", "nome_comando": "2º Comando de Policiamento de Área Metropolitana (CPA/M-2)", "cidade_sede": "Sao Paulo", "endereco_sede": "RUA RAFAEL IORIO, 160, CAMPO BELO - Sao Paulo", "latitude_sede": -23.6269802, "longitude_sede": -46.6624975, "fonte_geocodificacao_sede": "Google Geocoding API", "fonte_geometria": null, "qt_municipios": null, "municipios_atendidos": null, "populacao_atendida": null }, "geometry": { "type": "Point", "coordinates": [ -46.6624975, -23.6269802 ] } },
{ "type": "Feature", "properties": { "nome_batalhao": "46º BPM/M", "tipo_batalhao": "Metropolitano", "id_comando": "CPA/M-2", "nome_comando": "2º Comando de Policiamento de Área Metropolitana (CPA/M-2)", "cidade_sede": "Sao Paulo", "endereco_sede": "RUA ARCIPRESTE ANDRADE, 250, IPIRANGA - Sao Paulo", "latitude_sede": -23.5951093, "longitude_sede": -46.6115136, "fonte_geocodificacao_sede": "Google Geocoding API", "fonte_geometria": null, "qt_municipios": null, "municipios_atendidos": null, "populacao_atendida": null }, "geometry": { "type": "Point", "coordinates": [ -46.611513599999988, -23.5951093 ] } },
{ "type": "Feature", "properties": { "nome_batalhao": "5º BPM/M", "tipo_batalhao": "Metropolitano", "id_comando": "CPA/M-3", "nome_comando": "3º Comando de Policiamento de Área Metropolitana (CPA/M-3)", "cidade_sede": "Sao Paulo", "endereco_sede": "RUA SAO MARCELO, 399, VILA PEDROSA - Sao Paulo", "latitude_sede": -23.4873928, "longitude_sede": -46.5955182, "fonte_geocodificacao_sede": "Google Geocoding API", "fonte_geometria": null, "qt_municipios": null, "municipios_atendidos": null, "populacao_atendida": null }, "geometry": { "type": "Point", "coordinates": [ -46.5955182, -23.4873928 ] } },
{ "type": "Feature", "properties": { "nome_batalhao": "9º BPM/M", "tipo_batalhao": "Metropolitano", "id_comando": "CPA/M-3", "nome_comando": "3º Comando de Policiamento de Área Metropolitana (CPA/M-3)", "cidade_sede": "Sao Paulo", "endereco_sede": "AVENIDA NOVA CANTAREIRA, 842, SANTANA - Sao Paulo", "latitude_sede": -23.4867171, "longitude_sede": -46.6175244, "fonte_geocodificacao_sede": "Google Geocoding API", "fonte_geometria": null, "qt_municipios": null, "municipios_atendidos": null, "populacao_atendida": null }, "geometry": { "type": "Point", "coordinates": [ -46.6175244, -23.4867171 ] } },
{ "type": "Feature", "properties": { "nome_batalhao": "18º BPM/M", "tipo_batalhao": "Metropolitano", "id_comando": "CPA/M-3", "nome_comando": "3º Comando de Policiamento de Área Metropolitana (CPA/M-3)", "cidade_sede": "Sao Paulo", "endereco_sede": "AVENIDA GENERAL EDGAR FACÓ, 88, FREGUESIA DO Ó - Sao Paulo", "latitude_sede": -23.5057429, "longitude_sede": -46.7053317, "fonte_geocodificacao_sede": "Google Geocoding API", "fonte_geometria": null, "qt_municipios": null, "municipios_atendidos": null, "populacao_atendida": null }, "geometry": { "type": "Point", "coordinates": [ -46.7053317, -23.5057429 ] } },
{ "type": "Feature", "properties": { "nome_batalhao": "43º BPM/M", "tipo_batalhao": "Metropolitano", "id_comando": "CPA/M-3", "nome_comando": "3º Comando de Policiamento de Área Metropolitana (CPA/M-3)", "cidade_sede": "Sao Paulo", "endereco_sede": "RUA CAPITAO ALBERTO MENDES JUNIOR, 72, SANTANA - Sao Paulo", "latitude_sede": -23.4851373, "longitude_sede": -46.6203198, "fonte_geocodificacao_sede": "Google Geocoding API", "fonte_geometria": null, "qt_municipios": null, "municipios_atendidos": null, "populacao_atendida": null }, "geometry": { "type": "Point", "coordinates": [ -46.6203198, -23.4851373 ] } },
{ "type": "Feature", "properties": { "nome_batalhao": "2º BPM/M", "tipo_batalhao": "Metropolitano", "id_comando": "CPA/M-4", "nome_comando": "4º Comando de Policiamento de Área Metropolitana (CPA/M-4)", "cidade_sede": "Sao Paulo", "endereco_sede": "AVENIDA AMADOR BUENO DA VEIGA, 2774, PENHA - Sao Paulo", "latitude_sede": -23.5229278, "longitude_sede": -46.5184075, "fonte_geocodificacao_sede": "Google Geocoding API", "fonte_geometria": null, "qt_municipios": null, "municipios_atendidos": null, "populacao_atendida": null }, "geometry": { "type": "Point", "coordinates": [ -46.5184075, -23.5229278 ] } },
{ "type": "Feature", "properties": { "nome_batalhao": "29º BPM/M", "tipo_batalhao": "Metropolitano", "id_comando": "CPA/M-4", "nome_comando": "4º Comando de Policiamento de Área Metropolitana (CPA/M-4)", "cidade_sede": "Sao Paulo", "endereco_sede": "AVENIDA IMPERADOR, 3705  COMPANHIA DA POLICIA MILITAR, LIMOEIRO - Sao Paulo", "latitude_sede": -23.5169378, "longitude_sede": -46.4686103, "fonte_geocodificacao_sede": "Google Geocoding API", "fonte_geometria": null, "qt_municipios": null, "municipios_atendidos": null, "populacao_atendida": null }, "geometry": { "type": "Point", "coordinates": [ -46.468610299999987, -23.5169378 ] } },
{ "type": "Feature", "properties": { "nome_batalhao": "39º BPM/M", "tipo_batalhao": "Metropolitano", "id_comando": "CPA/M-4", "nome_comando": "4º Comando de Policiamento de Área Metropolitana (CPA/M-4)", "cidade_sede": "Sao Paulo", "endereco_sede": "AVENIDA ÁGUIA DE HAIA, 3311, JARDIM COTINHA - Sao Paulo", "latitude_sede": -23.5183064, "longitude_sede": -46.4763492, "fonte_geocodificacao_sede": "Google Geocoding API", "fonte_geometria": null, "qt_municipios": null, "municipios_atendidos": null, "populacao_atendida": null }, "geometry": { "type": "Point", "coordinates": [ -46.4763492, -23.5183064 ] } },
{ "type": "Feature", "properties": { "nome_batalhao": "48º BPM/M", "tipo_batalhao": "Metropolitano", "id_comando": "CPA/M-4", "nome_comando": "4º Comando de Policiamento de Área Metropolitana (CPA/M-4)", "cidade_sede": "Sao Paulo", "endereco_sede": "RUA VICENTE AVELAR, 100  QUARTEL DA PM, JOSE BONIFACIO - Sao Paulo", "latitude_sede": -23.5452107, "longitude_sede": -46.4362831, "fonte_geocodificacao_sede": "Google Geocoding API", "fonte_geometria": null, "qt_municipios": null, "municipios_atendidos": null, "populacao_atendida": null }, "geometry": { "type": "Point", "coordinates": [ -46.4362831, -23.5452107 ] } },
{ "type": "Feature", "properties": { "nome_batalhao": "4º BPM/M", "tipo_batalhao": "Metropolitano", "id_comando": "CPA/M-5", "nome_comando": "5º Comando de Policiamento de Área Metropolitana (CPA/M-5)", "cidade_sede": "Sao Paulo", "endereco_sede": "RUA PASSO DA PATRIA, 1601  4º BPM/M, VILA LEOPOLDINA - Sao Paulo", "latitude_sede": -23.5239185, "longitude_sede": -46.7323888, "fonte_geocodificacao_sede": "Google Geocoding API", "fonte_geometria": null, "qt_municipios": null, "municipios_atendidos": null, "populacao_atendida": null }, "geometry": { "type": "Point", "coordinates": [ -46.7323888, -23.5239185 ] } },
{ "type": "Feature", "properties": { "nome_batalhao": "16º BPM/M", "tipo_batalhao": "Metropolitano", "id_comando": "CPA/M-5", "nome_comando": "5º Comando de Policiamento de Área Metropolitana (CPA/M-5)", "cidade_sede": "Sao Paulo", "endereco_sede": "AVENIDA CORIFEU DE AZEVEDO MARQUES, 4082  16ºBPM/M, RIO PEQUENO - Sao Paulo", "latitude_sede": -23.5622456, "longitude_sede": -46.7464951, "fonte_geocodificacao_sede": "Google Geocoding API", "fonte_geometria": null, "qt_municipios": null, "municipios_atendidos": null, "populacao_atendida": null }, "geometry": { "type": "Point", "coordinates": [ -46.7464951, -23.5622456 ] } },
{ "type": "Feature", "properties": { "nome_batalhao": "23º BPM/M", "tipo_batalhao": "Metropolitano", "id_comando": "CPA/M-5", "nome_comando": "5º Comando de Policiamento de Área Metropolitana (CPA/M-5)", "cidade_sede": "Sao Paulo", "endereco_sede": "RUA GOMES DE MEDEIROS, 140, ALTO DE PINHEIROS - Sao Paulo", "latitude_sede": -23.5482405, "longitude_sede": -46.6984674, "fonte_geocodificacao_sede": "Google Geocoding API", "fonte_geometria": null, "qt_municipios": null, "municipios_atendidos": null, "populacao_atendida": null }, "geometry": { "type": "Point", "coordinates": [ -46.6984674, -23.5482405 ] } },
{ "type": "Feature", "properties": { "nome_batalhao": "49º BPM/M", "tipo_batalhao": "Metropolitano", "id_comando": "CPA/M-5", "nome_comando": "5º Comando de Policiamento de Área Metropolitana (CPA/M-5)", "cidade_sede": "Sao Paulo", "endereco_sede": "AVENIDA DOUTOR FELIPE PINEL, 2101  49º BPM/M, JARAGUA - Sao Paulo", "latitude_sede": -23.4722151, "longitude_sede": -46.7358345, "fonte_geocodificacao_sede": "Google Geocoding API", "fonte_geometria": null, "qt_municipios": null, "municipios_atendidos": null, "populacao_atendida": null }, "geometry": { "type": "Point", "coordinates": [ -46.7358345, -23.4722151 ] } },
{ "type": "Feature", "properties": { "nome_batalhao": "6º BPM/M", "tipo_batalhao": "Metropolitano", "id_comando": "CPA/M-6", "nome_comando": "6º Comando de Policiamento de Área Metropolitana (CPA/M-6)", "cidade_sede": "Sao Bernardo Do Campo", "endereco_sede": "RUA MAX MANGELS SÊNIOR, 392, PLANALTO - Sao Bernardo Do Campo", "latitude_sede": -23.6989813, "longitude_sede": -46.5682979, "fonte_geocodificacao_sede": "Google Geocoding API", "fonte_geometria": null, "qt_municipios": null, "municipios_atendidos": null, "populacao_atendida": null }, "geometry": { "type": "Point", "coordinates": [ -46.5682979, -23.6989813 ] } },
{ "type": "Feature", "properties": { "nome_batalhao": "10º BPM/M", "tipo_batalhao": "Metropolitano", "id_comando": "CPA/M-6", "nome_comando": "6º Comando de Policiamento de Área Metropolitana (CPA/M-6)", "cidade_sede": "Santo Andre", "endereco_sede": "ALAMEDA SÃO CAETANO, 903, BAIRRO JARDIM - Santo Andre", "latitude_sede": -23.6475907, "longitude_sede": -46.5466555, "fonte_geocodificacao_sede": "Google Geocoding API", "fonte_geometria": null, "qt_municipios": null, "municipios_atendidos": null, "populacao_atendida": null }, "geometry": { "type": "Point", "coordinates": [ -46.5466555, -23.6475907 ] } },
{ "type": "Feature", "properties": { "nome_batalhao": "24º BPM/M", "tipo_batalhao": "Metropolitano", "id_comando": "CPA/M-6", "nome_comando": "6º Comando de Policiamento de Área Metropolitana (CPA/M-6)", "cidade_sede": "Diadema", "endereco_sede": "AVENIDA NOSSA SENHORA DAS VITÓRIAS, 106, CENTRO - Diadema", "latitude_sede": -23.6880659, "longitude_sede": -46.6260456, "fonte_geocodificacao_sede": "Google Geocoding API", "fonte_geometria": null, "qt_municipios": null, "municipios_atendidos": null, "populacao_atendida": null }, "geometry": { "type": "Point", "coordinates": [ -46.6260456, -23.6880659 ] } },
{ "type": "Feature", "properties": { "nome_batalhao": "30º BPM/M", "tipo_batalhao": "Metropolitano", "id_comando": "CPA/M-6", "nome_comando": "6º Comando de Policiamento de Área Metropolitana (CPA/M-6)", "cidade_sede": "Maua", "endereco_sede": "AVENIDA PAPA JOÃO XXIII, 528  A, PARQUE SÃO VICENTE - Maua", "latitude_sede": -23.6688194, "longitude_sede": -46.4699414, "fonte_geocodificacao_sede": "Google Geocoding API", "fonte_geometria": null, "qt_municipios": null, "municipios_atendidos": null, "populacao_atendida": null }, "geometry": { "type": "Point", "coordinates": [ -46.4699414, -23.6688194 ] } },
{ "type": "Feature", "properties": { "nome_batalhao": "40º BPM/M", "tipo_batalhao": "Metropolitano", "id_comando": "CPA/M-6", "nome_comando": "6º Comando de Policiamento de Área Metropolitana (CPA/M-6)", "cidade_sede": "Sao Bernardo Do Campo", "endereco_sede": "RUA JOSÉ ROMANO, 73, PARQUE ESPACIAL - Sao Bernardo Do Campo", "latitude_sede": -23.7305608, "longitude_sede": -46.5664125, "fonte_geocodificacao_sede": "Google Geocoding API", "fonte_geometria": null, "qt_municipios": null, "municipios_atendidos": null, "populacao_atendida": null }, "geometry": { "type": "Point", "coordinates": [ -46.5664125, -23.7305608 ] } },
{ "type": "Feature", "properties": { "nome_batalhao": "15º BPM/M", "tipo_batalhao": "Metropolitano", "id_comando": "CPA/M-7", "nome_comando": "7º Comando de Policiamento de Área Metropolitana (CPA/M-7)", "cidade_sede": "Guarulhos", "endereco_sede": "RUA HUMBERTO DE CAMPOS, 715, GOPOUVA - Guarulhos", "latitude_sede": -23.462879, "longitude_sede": -46.5383519, "fonte_geocodificacao_sede": "Google Geocoding API", "fonte_geometria": null, "qt_municipios": null, "municipios_atendidos": null, "populacao_atendida": null }, "geometry": { "type": "Point", "coordinates": [ -46.538351899999988, -23.462879 ] } },
{ "type": "Feature", "properties": { "nome_batalhao": "26º BPM/M", "tipo_batalhao": "Metropolitano", "id_comando": "CPA/M-7", "nome_comando": "7º Comando de Policiamento de Área Metropolitana (CPA/M-7)", "cidade_sede": "Franco Da Rocha", "endereco_sede": "AVENIDA DOS COQUEIROS, FCO DA ROCHA, 0  26BPMM-S/N-COMPLEXO DO JUQUERI, CENTRO - COMPLEXO JUQEURI - Franco Da Rocha", "latitude_sede": -23.335978, "longitude_sede": -46.7305669, "fonte_geocodificacao_sede": "Google Geocoding API", "fonte_geometria": null, "qt_municipios": null, "municipios_atendidos": null, "populacao_atendida": null }, "geometry": { "type": "Point", "coordinates": [ -46.7305669, -23.335978 ] } },
{ "type": "Feature", "properties": { "nome_batalhao": "31º BPM/M", "tipo_batalhao": "Metropolitano", "id_comando": "CPA/M-7", "nome_comando": "7º Comando de Policiamento de Área Metropolitana (CPA/M-7)", "cidade_sede": "Guarulhos", "endereco_sede": "AVENIDA CANDÉA, GUARULHOS, 400  31BPMM, HAROLDO VELOSO - Guarulhos", "latitude_sede": -23.4160602, "longitude_sede": -46.4671681, "fonte_geocodificacao_sede": "Google Geocoding API", "fonte_geometria": null, "qt_municipios": null, "municipios_atendidos": null, "populacao_atendida": null }, "geometry": { "type": "Point", "coordinates": [ -46.467168099999988, -23.4160602 ] } },
{ "type": "Feature", "properties": { "nome_batalhao": "14º BPM/M", "tipo_batalhao": "Metropolitano", "id_comando": "CPA/M-8", "nome_comando": "8º Comando de Policiamento de Área Metropolitana (CPA/M-8)", "cidade_sede": "Osasco", "endereco_sede": "RUA LÍBERO CARNICELI, 433, JAGUARIBE - Osasco", "latitude_sede": -23.5557057, "longitude_sede": -46.7850521, "fonte_geocodificacao_sede": "Google Geocoding API", "fonte_geometria": null, "qt_municipios": null, "municipios_atendidos": null, "populacao_atendida": null }, "geometry": { "type": "Point", "coordinates": [ -46.785052099999987, -23.5557057 ] } },
{ "type": "Feature", "properties": { "nome_batalhao": "20º BPM/M", "tipo_batalhao": "Metropolitano", "id_comando": "CPA/M-8", "nome_comando": "8º Comando de Policiamento de Área Metropolitana (CPA/M-8)", "cidade_sede": "Barueri", "endereco_sede": "AVENIDA MARGINAL DIREITA, 56, JARDIM PAULISTA - Barueri", "latitude_sede": -23.5442166, "longitude_sede": -46.8816427, "fonte_geocodificacao_sede": "Google Geocoding API", "fonte_geometria": null, "qt_municipios": null, "municipios_atendidos": null, "populacao_atendida": null }, "geometry": { "type": "Point", "coordinates": [ -46.8816427, -23.5442166 ] } },
{ "type": "Feature", "properties": { "nome_batalhao": "25º BPM/M", "tipo_batalhao": "Metropolitano", "id_comando": "CPA/M-8", "nome_comando": "8º Comando de Policiamento de Área Metropolitana (CPA/M-8)", "cidade_sede": "Itapecerica Da Serra", "endereco_sede": "RUA TAQUARAL, 28  0, JARDIM ITAPECERICA - Itapecerica Da Serra", "latitude_sede": -23.6899766, "longitude_sede": -46.8563726, "fonte_geocodificacao_sede": "Google Geocoding API", "fonte_geometria": null, "qt_municipios": null, "municipios_atendidos": null, "populacao_atendida": null }, "geometry": { "type": "Point", "coordinates": [ -46.8563726, -23.6899766 ] } },
{ "type": "Feature", "properties": { "nome_batalhao": "33º BPM/M", "tipo_batalhao": "Metropolitano", "id_comando": "CPA/M-8", "nome_comando": "8º Comando de Policiamento de Área Metropolitana (CPA/M-8)", "cidade_sede": "Carapicuiba", "endereco_sede": "AVENIDA COMENDADOR DANTE CARRARO, 333, CIDADE ARISTON - Carapicuiba", "latitude_sede": -23.5230539, "longitude_sede": -46.8540036, "fonte_geocodificacao_sede": "Google Geocoding API", "fonte_geometria": null, "qt_municipios": null, "municipios_atendidos": null, "populacao_atendida": null }, "geometry": { "type": "Point", "coordinates": [ -46.8540036, -23.5230539 ] } },
{ "type": "Feature", "properties": { "nome_batalhao": "36º BPM/M", "tipo_batalhao": "Metropolitano", "id_comando": "CPA/M-8", "nome_comando": "8º Comando de Policiamento de Área Metropolitana (CPA/M-8)", "cidade_sede": "Embu Das Artes", "endereco_sede": "ESTRADA SANTA BÁRBARA, 500, SANTABARBARA - Embu Das Artes", "latitude_sede": -23.6406387, "longitude_sede": -46.8330074, "fonte_geocodificacao_sede": "Google Geocoding API", "fonte_geometria": null, "qt_municipios": null, "municipios_atendidos": null, "populacao_atendida": null }, "geometry": { "type": "Point", "coordinates": [ -46.8330074, -23.6406387 ] } },
{ "type": "Feature", "properties": { "nome_batalhao": "19º BPM/M", "tipo_batalhao": "Metropolitano", "id_comando": "CPA/M-9", "nome_comando": "9º Comando de Policiamento de Área Metropolitana (CPA/M-9)", "cidade_sede": "Sao Paulo", "endereco_sede": "Av Professor Luiz Ignacio Anhaia Melo, 8301, Vila Tostoi - Sao Paulo", "latitude_sede": -23.6022172, "longitude_sede": -46.5213504, "fonte_geocodificacao_sede": "Google Geocoding API", "fonte_geometria": null, "qt_municipios": null, "municipios_atendidos": null, "populacao_atendida": null }, "geometry": { "type": "Point", "coordinates": [ -46.5213504, -23.6022172 ] } },
{ "type": "Feature", "properties": { "nome_batalhao": "28º BPM/M", "tipo_batalhao": "Metropolitano", "id_comando": "CPA/M-9", "nome_comando": "9º Comando de Policiamento de Área Metropolitana (CPA/M-9)", "cidade_sede": "Sao Paulo", "endereco_sede": "RUA VENANCIO LISBOA, 310, PARQUE DO CARMO - Sao Paulo", "latitude_sede": -23.5678862, "longitude_sede": -46.4700656, "fonte_geocodificacao_sede": "Google Geocoding API", "fonte_geometria": null, "qt_municipios": null, "municipios_atendidos": null, "populacao_atendida": null }, "geometry": { "type": "Point", "coordinates": [ -46.4700656, -23.5678862 ] } },
{ "type": "Feature", "properties": { "nome_batalhao": "38º BPM/M", "tipo_batalhao": "Metropolitano", "id_comando": "CPA/M-9", "nome_comando": "9º Comando de Policiamento de Área Metropolitana (CPA/M-9)", "cidade_sede": "Sao Paulo", "endereco_sede": "TRAVESSA TERNURA ANTIGA, 1, IGUATEMI - Sao Paulo", "latitude_sede": -23.6123631, "longitude_sede": -46.4450801, "fonte_geocodificacao_sede": "Google Geocoding API", "fonte_geometria": null, "qt_municipios": null, "municipios_atendidos": null, "populacao_atendida": null }, "geometry": { "type": "Point", "coordinates": [ -46.4450801, -23.6123631 ] } },
{ "type": "Feature", "properties": { "nome_batalhao": "1º BPM/I", "tipo_batalhao": "Interior", "id_comando": "CPI-1", "nome_comando": "1º Comando de Policiamento do Interior (CPI-1)", "cidade_sede": "Sao Jose Dos Campos", "endereco_sede": "RUA GENÉSIA BERNARDINELI TARANTINO, 1000  1º BPM/I, JARDIM AUGUSTA - Sao Jose Dos Campos", "latitude_sede": -23.1952568, "longitude_sede": -45.8745657, "fonte_geocodificacao_sede": "Google Geocoding API", "fonte_geometria": null, "qt_municipios": null, "municipios_atendidos": null, "populacao_atendida": null }, "geometry": { "type": "Point", "coordinates": [ -45.8745657, -23.1952568 ] } },
{ "type": "Feature", "properties": { "nome_batalhao": "5º BPM/I", "tipo_batalhao": "Interior", "id_comando": "CPI-1", "nome_comando": "1º Comando de Policiamento do Interior (CPI-1)", "cidade_sede": "Taubate", "endereco_sede": "AVENIDA INDEPENDÊNCIA, 247  5º BPMI, INDEPENDÊNCIA - Taubate", "latitude_sede": -23.0367252, "longitude_sede": -45.5742331, "fonte_geocodificacao_sede": "Google Geocoding API", "fonte_geometria": null, "qt_municipios": null, "municipios_atendidos": null, "populacao_atendida": null }, "geometry": { "type": "Point", "coordinates": [ -45.5742331, -23.0367252 ] } },
{ "type": "Feature", "properties": { "nome_batalhao": "20º BPM/I", "tipo_batalhao": "Interior", "id_comando": "CPI-1", "nome_comando": "1º Comando de Policiamento do Interior (CPI-1)", "cidade_sede": "Caraguatatuba", "endereco_sede": "AVENIDA BRASIL, 1001  20º BPM/I, SUMARÉ - Caraguatatuba", "latitude_sede": -23.6204071, "longitude_sede": -45.3998049, "fonte_geocodificacao_sede": "Google Geocoding API", "fonte_geometria": null, "qt_municipios": null, "municipios_atendidos": null, "populacao_atendida": null }, "geometry": { "type": "Point", "coordinates": [ -45.3998049, -23.6204071 ] } },
{ "type": "Feature", "properties": { "nome_batalhao": "23º BPM/I", "tipo_batalhao": "Interior", "id_comando": "CPI-1", "nome_comando": "1º Comando de Policiamento do Interior (CPI-1)", "cidade_sede": "Lorena", "endereco_sede": "AVENIDA CORONEL MÁRCIANO, 209  23º BPM/I - SEDE, BAIRRO SANTO ANTONIO - Lorena", "latitude_sede": -22.7402518, "longitude_sede": -45.1272896, "fonte_geocodificacao_sede": "Google Geocoding API", "fonte_geometria": null, "qt_municipios": null, "municipios_atendidos": null, "populacao_atendida": null }, "geometry": { "type": "Point", "coordinates": [ -45.1272896, -22.7402518 ] } },
{ "type": "Feature", "properties": { "nome_batalhao": "41º BPM/I", "tipo_batalhao": "Interior", "id_comando": "CPI-1", "nome_comando": "1º Comando de Policiamento do Interior (CPI-1)", "cidade_sede": "Jacarei", "endereco_sede": "AVENIDA FARIA LIMA, 225  Nº 255/241, JARDIM SANTA MARIA - Jacarei", "latitude_sede": -23.29461, "longitude_sede": -45.9666645, "fonte_geocodificacao_sede": "Google Geocoding API", "fonte_geometria": null, "qt_municipios": null, "municipios_atendidos": null, "populacao_atendida": null }, "geometry": { "type": "Point", "coordinates": [ -45.9666645, -23.29461 ] } },
{ "type": "Feature", "properties": { "nome_batalhao": "46º BPM/I", "tipo_batalhao": "Interior", "id_comando": "CPI-1", "nome_comando": "1º Comando de Policiamento do Interior (CPI-1)", "cidade_sede": "Sao Jose Dos Campos", "endereco_sede": "RUA JOANA MARIA CORREA LARANJEIRA, 255, JARDIM PETROPOLIS - Sao Jose Dos Campos", "latitude_sede": -23.2417451, "longitude_sede": -45.9145239, "fonte_geocodificacao_sede": "Google Geocoding API", "fonte_geometria": null, "qt_municipios": null, "municipios_atendidos": null, "populacao_atendida": null }, "geometry": { "type": "Point", "coordinates": [ -45.9145239, -23.2417451 ] } },
{ "type": "Feature", "properties": { "nome_batalhao": "2º BPM/I", "tipo_batalhao": "Interior", "id_comando": "CPI-10", "nome_comando": "10º Comando de Policiamento do Interior (CPI-10)", "cidade_sede": "Aracatuba", "endereco_sede": "RUA CAPITAO ALBERTO MENDES JUNIOR, 238, RURAL - Aracatuba", "latitude_sede": -21.1959925, "longitude_sede": -50.4320202, "fonte_geocodificacao_sede": "Google Geocoding API", "fonte_geometria": null, "qt_municipios": null, "municipios_atendidos": null, "populacao_atendida": null }, "geometry": { "type": "Point", "coordinates": [ -50.4320202, -21.1959925 ] } },
{ "type": "Feature", "properties": { "nome_batalhao": "28º BPM/I", "tipo_batalhao": "Interior", "id_comando": "CPI-10", "nome_comando": "10º Comando de Policiamento do Interior (CPI-10)", "cidade_sede": "Andradina", "endereco_sede": "RUA BARÃO DO RIO BRANCO, 405, PARQUE SANTO ANTONIO - Andradina", "latitude_sede": -20.8965224, "longitude_sede": -51.3835841, "fonte_geocodificacao_sede": "Google Geocoding API", "fonte_geometria": null, "qt_municipios": null, "municipios_atendidos": null, "populacao_atendida": null }, "geometry": { "type": "Point", "coordinates": [ -51.3835841, -20.8965224 ] } },
{ "type": "Feature", "properties": { "nome_batalhao": "8º BPM/I", "tipo_batalhao": "Interior", "id_comando": "CPI-2", "nome_comando": "2º Comando de Policiamento do Interior (CPI-2)", "cidade_sede": "Campinas", "endereco_sede": "RUA LUÍS GAMA, 298, BONFIM - Campinas", "latitude_sede": -22.900205, "longitude_sede": -47.078595, "fonte_geocodificacao_sede": "Google Geocoding API", "fonte_geometria": null, "qt_municipios": null, "municipios_atendidos": null, "populacao_atendida": null }, "geometry": { "type": "Point", "coordinates": [ -47.078595, -22.900205 ] } },
{ "type": "Feature", "properties": { "nome_batalhao": "11º BPM/I", "tipo_batalhao": "Interior", "id_comando": "CPI-2", "nome_comando": "2º Comando de Policiamento do Interior (CPI-2)", "cidade_sede": "Jundiai", "endereco_sede": "AVENIDA CARLOS SALES BLOCK, 568, ANHANGABAÚ - Jundiai", "latitude_sede": -23.1941197, "longitude_sede": -46.8922354, "fonte_geocodificacao_sede": "Google Geocoding API", "fonte_geometria": null, "qt_municipios": null, "municipios_atendidos": null, "populacao_atendida": null }, "geometry": { "type": "Point", "coordinates": [ -46.8922354, -23.1941197 ] } },
{ "type": "Feature", "properties": { "nome_batalhao": "26º BPM/I", "tipo_batalhao": "Interior", "id_comando": "CPI-2", "nome_comando": "2º Comando de Policiamento do Interior (CPI-2)", "cidade_sede": "Mogi Guacu", "endereco_sede": "RUA JOSE PENTEADO, 90, JARDIM NOVO I - Mogi Guacu", "latitude_sede": -22.3472738, "longitude_sede": -46.9386512, "fonte_geocodificacao_sede": "Google Geocoding API", "fonte_geometria": null, "qt_municipios": null, "municipios_atendidos": null, "populacao_atendida": null }, "geometry": { "type": "Point", "coordinates": [ -46.9386512, -22.3472738 ] } },
{ "type": "Feature", "properties": { "nome_batalhao": "34º BPM/I", "tipo_batalhao": "Interior", "id_comando": "CPI-2", "nome_comando": "2º Comando de Policiamento do Interior (CPI-2)", "cidade_sede": "Braganca Paulista", "endereco_sede": "AVENIDA JOSÉ GOMES DA ROCHA LEAL, 1651, CENTRO - Braganca Paulista", "latitude_sede": -22.9530263, "longitude_sede": -46.5453018, "fonte_geocodificacao_sede": "Google Geocoding API", "fonte_geometria": null, "qt_municipios": null, "municipios_atendidos": null, "populacao_atendida": null }, "geometry": { "type": "Point", "coordinates": [ -46.5453018, -22.9530263 ] } },
{ "type": "Feature", "properties": { "nome_batalhao": "35º BPM/I", "tipo_batalhao": "Interior", "id_comando": "CPI-2", "nome_comando": "2º Comando de Policiamento do Interior (CPI-2)", "cidade_sede": "Campinas", "endereco_sede": "AVENIDA WASHINGTON LUIS, 2300, VILA MARIETA - Campinas", "latitude_sede": -22.9356128, "longitude_sede": -47.0509907, "fonte_geocodificacao_sede": "Google Geocoding API", "fonte_geometria": null, "qt_municipios": null, "municipios_atendidos": null, "populacao_atendida": null }, "geometry": { "type": "Point", "coordinates": [ -47.0509907, -22.9356128 ] } },
{ "type": "Feature", "properties": { "nome_batalhao": "47º BPM/I", "tipo_batalhao": "Interior", "id_comando": "CPI-2", "nome_comando": "2º Comando de Policiamento do Interior (CPI-2)", "cidade_sede": "Campinas", "endereco_sede": "RUA WALDEMAR JOSÉ STRAZACAPA, 272, Jd. Indianópolis - Campinas", "latitude_sede": -22.9489382, "longitude_sede": -47.0990112, "fonte_geocodificacao_sede": "Google Geocoding API", "fonte_geometria": null, "qt_municipios": null, "municipios_atendidos": null, "populacao_atendida": null }, "geometry": { "type": "Point", "coordinates": [ -47.0990112, -22.9489382 ] } },
{ "type": "Feature", "properties": { "nome_batalhao": "49º BPM/I", "tipo_batalhao": "Interior", "id_comando": "CPI-2", "nome_comando": "2º Comando de Policiamento do Interior (CPI-2)", "cidade_sede": "Jundiai", "endereco_sede": "RUA BARÃO DO RIO BRANCO, 318, VILA ARENS E PROGRESSO - Jundiai", "latitude_sede": -23.1956012, "longitude_sede": -46.8760892, "fonte_geocodificacao_sede": "Google Geocoding API", "fonte_geometria": null, "qt_municipios": null, "municipios_atendidos": null, "populacao_atendida": null }, "geometry": { "type": "Point", "coordinates": [ -46.8760892, -23.1956012 ] } },
{ "type": "Feature", "properties": { "nome_batalhao": "3º BPM/I", "tipo_batalhao": "Interior", "id_comando": "CPI-3", "nome_comando": "3º Comando de Policiamento do Interior (CPI-3)", "cidade_sede": "Ribeirao Preto", "endereco_sede": "AV CAVALHEIRO PASCHOAL INECHI-3ºBPM/I, 1538, JARDIM INDEPÊNDENCIA - Ribeirao Preto", "latitude_sede": -21.1564639, "longitude_sede": -47.7831033, "fonte_geocodificacao_sede": "Google Geocoding API", "fonte_geometria": null, "qt_municipios": null, "municipios_atendidos": null, "populacao_atendida": null }, "geometry": { "type": "Point", "coordinates": [ -47.7831033, -21.1564639 ] } },
{ "type": "Feature", "properties": { "nome_batalhao": "13º BPM/I", "tipo_batalhao": "Interior", "id_comando": "CPI-3", "nome_comando": "3º Comando de Policiamento do Interior (CPI-3)", "cidade_sede": "Araraquara", "endereco_sede": "AVENIDA JORGE BILLER TEIXEIRA, 519, VILA FERROVIARIA - Araraquara", "latitude_sede": -21.7792197, "longitude_sede": -48.1738321, "fonte_geocodificacao_sede": "Google Geocoding API", "fonte_geometria": null, "qt_municipios": null, "municipios_atendidos": null, "populacao_atendida": null }, "geometry": { "type": "Point", "coordinates": [ -48.1738321, -21.7792197 ] } },
{ "type": "Feature", "properties": { "nome_batalhao": "15º BPM/I", "tipo_batalhao": "Interior", "id_comando": "CPI-3", "nome_comando": "3º Comando de Policiamento do Interior (CPI-3)", "cidade_sede": "Franca", "endereco_sede": "RUA ALFREDO TOSI, 1200, NUCLEO ALPHA - Franca", "latitude_sede": -20.5669191, "longitude_sede": -47.4010625, "fonte_geocodificacao_sede": "Google Geocoding API", "fonte_geometria": null, "qt_municipios": null, "municipios_atendidos": null, "populacao_atendida": null }, "geometry": { "type": "Point", "coordinates": [ -47.401062499999988, -20.5669191 ] } },
{ "type": "Feature", "properties": { "nome_batalhao": "33º BPM/I", "tipo_batalhao": "Interior", "id_comando": "CPI-3", "nome_comando": "3º Comando de Policiamento do Interior (CPI-3)", "cidade_sede": "Barretos", "endereco_sede": "ESTRADA VICINAL LUIZ CARLOS ARUTIN, 500, FRIGORÍFICO - Barretos", "latitude_sede": -20.5933483, "longitude_sede": -48.552517, "fonte_geocodificacao_sede": "Google Geocoding API", "fonte_geometria": null, "qt_municipios": null, "municipios_atendidos": null, "populacao_atendida": null }, "geometry": { "type": "Point", "coordinates": [ -48.552517, -20.5933483 ] } },
{ "type": "Feature", "properties": { "nome_batalhao": "38º BPM/I", "tipo_batalhao": "Interior", "id_comando": "CPI-3", "nome_comando": "3º Comando de Policiamento do Interior (CPI-3)", "cidade_sede": "Sao Carlos", "endereco_sede": "RUA BENTO CARLOS, 930, CENTREVILLE - Sao Carlos", "latitude_sede": -22.0228882, "longitude_sede": -47.886267, "fonte_geocodificacao_sede": "Google Geocoding API", "fonte_geometria": null, "qt_municipios": null, "municipios_atendidos": null, "populacao_atendida": null }, "geometry": { "type": "Point", "coordinates": [ -47.886267, -22.0228882 ] } },
{ "type": "Feature", "properties": { "nome_batalhao": "43º BPM/I", "tipo_batalhao": "Interior", "id_comando": "CPI-3", "nome_comando": "3º Comando de Policiamento do Interior (CPI-3)", "cidade_sede": "Sertaozinho", "endereco_sede": "AVENIDA JOÃO PIGNATA, 922, JD SÃO SEBASTIAO - Sertaozinho", "latitude_sede": -21.1401208, "longitude_sede": -47.9733972, "fonte_geocodificacao_sede": "Google Geocoding API", "fonte_geometria": null, "qt_municipios": null, "municipios_atendidos": null, "populacao_atendida": null }, "geometry": { "type": "Point", "coordinates": [ -47.9733972, -21.1401208 ] } },
{ "type": "Feature", "properties": { "nome_batalhao": "51º BPM/I", "tipo_batalhao": "Interior", "id_comando": "CPI-3", "nome_comando": "3º Comando de Policiamento do Interior (CPI-3)", "cidade_sede": "Ribeirao Preto", "endereco_sede": "AVENIDA PRESIDENTE KENEDY, 1570, NOVA RIBEIRANIA - Ribeirao Preto", "latitude_sede": -21.2036029, "longitude_sede": -47.7675024, "fonte_geocodificacao_sede": "Google Geocoding API", "fonte_geometria": null, "qt_municipios": null, "municipios_atendidos": null, "populacao_atendida": null }, "geometry": { "type": "Point", "coordinates": [ -47.7675024, -21.2036029 ] } },
{ "type": "Feature", "properties": { "nome_batalhao": "4º BPM/I", "tipo_batalhao": "Interior", "id_comando": "CPI-4", "nome_comando": "4º Comando de Policiamento do Interior (CPI-4)", "cidade_sede": "Bauru", "endereco_sede": "AVENIDA ENGENHEIRO LUÍS EDMUNDO CARRIJO COUBE, 3165  QUADRA 3, JD COLONIAL - Bauru", "latitude_sede": -22.3505644, "longitude_sede": -49.0341516, "fonte_geocodificacao_sede": "Google Geocoding API", "fonte_geometria": null, "qt_municipios": null, "municipios_atendidos": null, "populacao_atendida": null }, "geometry": { "type": "Point", "coordinates": [ -49.0341516, -22.3505644 ] } },
{ "type": "Feature", "properties": { "nome_batalhao": "9º BPM/I", "tipo_batalhao": "Interior", "id_comando": "CPI-4", "nome_comando": "4º Comando de Policiamento do Interior (CPI-4)", "cidade_sede": "Marilia", "endereco_sede": "RUA CAPITÃO ALBERTO MENDES JÚNIOR, 118  quartel, JARDIM REGINA - Marilia", "latitude_sede": -22.2329254, "longitude_sede": -49.9213482, "fonte_geocodificacao_sede": "Google Geocoding API", "fonte_geometria": null, "qt_municipios": null, "municipios_atendidos": null, "populacao_atendida": null }, "geometry": { "type": "Point", "coordinates": [ -49.9213482, -22.2329254 ] } },
{ "type": "Feature", "properties": { "nome_batalhao": "27º BPM/I", "tipo_batalhao": "Interior", "id_comando": "CPI-4", "nome_comando": "4º Comando de Policiamento do Interior (CPI-4)", "cidade_sede": "Jau", "endereco_sede": "RUA VINTE E QUATRO DE MAIO, 943, VILA NOVA - Jau", "latitude_sede": -22.2981208, "longitude_sede": -48.5672303, "fonte_geocodificacao_sede": "Google Geocoding API", "fonte_geometria": null, "qt_municipios": null, "municipios_atendidos": null, "populacao_atendida": null }, "geometry": { "type": "Point", "coordinates": [ -48.5672303, -22.2981208 ] } },
{ "type": "Feature", "properties": { "nome_batalhao": "31º BPM/I", "tipo_batalhao": "Interior", "id_comando": "CPI-4", "nome_comando": "4º Comando de Policiamento do Interior (CPI-4)", "cidade_sede": "Ourinhos", "endereco_sede": "AVENIDA DOMINGOS PERINO, 1055, VILA PERINO - Ourinhos", "latitude_sede": -22.9659782, "longitude_sede": -49.8660459, "fonte_geocodificacao_sede": "Google Geocoding API", "fonte_geometria": null, "qt_municipios": null, "municipios_atendidos": null, "populacao_atendida": null }, "geometry": { "type": "Point", "coordinates": [ -49.8660459, -22.9659782 ] } },
{ "type": "Feature", "properties": { "nome_batalhao": "44º BPM/I", "tipo_batalhao": "Interior", "id_comando": "CPI-4", "nome_comando": "4º Comando de Policiamento do Interior (CPI-4)", "cidade_sede": "Lins", "endereco_sede": "RUA SARKIS DJANIKIAN MARACH, 44, RESIDENCIAL FLORESTAN FERNANDES - Lins", "latitude_sede": -21.6784574, "longitude_sede": -49.7385312, "fonte_geocodificacao_sede": "Google Geocoding API", "fonte_geometria": null, "qt_municipios": null, "municipios_atendidos": null, "populacao_atendida": null }, "geometry": { "type": "Point", "coordinates": [ -49.7385312, -21.6784574 ] } },
{ "type": "Feature", "properties": { "nome_batalhao": "16º BPM/I", "tipo_batalhao": "Interior", "id_comando": "CPI-5", "nome_comando": "5º Comando de Policiamento do Interior (CPI-5)", "cidade_sede": "Fernandopolis", "endereco_sede": "AVENIDA LÍBERO DE ALMEIDA SILVARES, 3105, COESTER - Fernandopolis", "latitude_sede": -20.282805, "longitude_sede": -50.2388891, "fonte_geocodificacao_sede": "Google Geocoding API", "fonte_geometria": null, "qt_municipios": null, "municipios_atendidos": null, "populacao_atendida": null }, "geometry": { "type": "Point", "coordinates": [ -50.238889099999987, -20.282805 ] } },
{ "type": "Feature", "properties": { "nome_batalhao": "17º BPM/I", "tipo_batalhao": "Interior", "id_comando": "CPI-5", "nome_comando": "5º Comando de Policiamento do Interior (CPI-5)", "cidade_sede": "Sao Jose Do Rio Preto", "endereco_sede": "RUA MACYR AMADEU, 996, JD SÃO FRANCISCO - Sao Jose Do Rio Preto", "latitude_sede": -20.8461338, "longitude_sede": -49.3865004, "fonte_geocodificacao_sede": "Google Geocoding API", "fonte_geometria": null, "qt_municipios": null, "municipios_atendidos": null, "populacao_atendida": null }, "geometry": { "type": "Point", "coordinates": [ -49.3865004, -20.8461338 ] } },
{ "type": "Feature", "properties": { "nome_batalhao": "30º BPM/I", "tipo_batalhao": "Interior", "id_comando": "CPI-5", "nome_comando": "5º Comando de Policiamento do Interior (CPI-5)", "cidade_sede": "Catanduva", "endereco_sede": "RUA OLIMPIA, 97, VILA GUZZO - Catanduva", "latitude_sede": -21.1296712, "longitude_sede": -48.9811633, "fonte_geocodificacao_sede": "Google Geocoding API", "fonte_geometria": null, "qt_municipios": null, "municipios_atendidos": null, "populacao_atendida": null }, "geometry": { "type": "Point", "coordinates": [ -48.9811633, -21.1296712 ] } },
{ "type": "Feature", "properties": { "nome_batalhao": "52º BPM/I", "tipo_batalhao": "Interior", "id_comando": "CPI-5", "nome_comando": "5º Comando de Policiamento do Interior (CPI-5)", "cidade_sede": "Mirassol", "endereco_sede": "AV. VICTÓRIO BACCAN, 2485  SEDE, SÃO JOSÉ - Mirassol", "latitude_sede": -20.8148468, "longitude_sede": -49.5061157, "fonte_geocodificacao_sede": "Google Geocoding API", "fonte_geometria": null, "qt_municipios": null, "municipios_atendidos": null, "populacao_atendida": null }, "geometry": { "type": "Point", "coordinates": [ -49.5061157, -20.8148468 ] } },
{ "type": "Feature", "properties": { "nome_batalhao": "6º BPM/I", "tipo_batalhao": "Interior", "id_comando": "CPI-6", "nome_comando": "6º Comando de Policiamento do Interior (CPI-6)", "cidade_sede": "Santos", "endereco_sede": "AVENIDA ANA COSTA, 389, GONZAGA - Santos", "latitude_sede": -23.9614503, "longitude_sede": -46.3317, "fonte_geocodificacao_sede": "Google Geocoding API", "fonte_geometria": null, "qt_municipios": null, "municipios_atendidos": null, "populacao_atendida": null }, "geometry": { "type": "Point", "coordinates": [ -46.3317, -23.9614503 ] } },
{ "type": "Feature", "properties": { "nome_batalhao": "14º BPM/I", "tipo_batalhao": "Interior", "id_comando": "CPI-6", "nome_comando": "6º Comando de Policiamento do Interior (CPI-6)", "cidade_sede": "Registro", "endereco_sede": "AV MARGINAL CASTELO BRANCO, 2179, VILA RIBEIROPOLIS - Registro", "latitude_sede": -24.5064854, "longitude_sede": -47.8480284, "fonte_geocodificacao_sede": "Google Geocoding API", "fonte_geometria": null, "qt_municipios": null, "municipios_atendidos": null, "populacao_atendida": null }, "geometry": { "type": "Point", "coordinates": [ -47.8480284, -24.5064854 ] } },
{ "type": "Feature", "properties": { "nome_batalhao": "21º BPM/I", "tipo_batalhao": "Interior", "id_comando": "CPI-6", "nome_comando": "6º Comando de Policiamento do Interior (CPI-6)", "cidade_sede": "Guaruja", "endereco_sede": "RUA JOSÉ AVELINO DE OLIVEIRA, 171, JD GUAIÚBA - Guaruja", "latitude_sede": -24.0132565, "longitude_sede": -46.277159, "fonte_geocodificacao_sede": "Google Geocoding API", "fonte_geometria": null, "qt_municipios": null, "municipios_atendidos": null, "populacao_atendida": null }, "geometry": { "type": "Point", "coordinates": [ -46.277159, -24.0132565 ] } },
{ "type": "Feature", "properties": { "nome_batalhao": "29º BPM/I", "tipo_batalhao": "Interior", "id_comando": "CPI-6", "nome_comando": "6º Comando de Policiamento do Interior (CPI-6)", "cidade_sede": "Itanhaem", "endereco_sede": "ESTRADA GENTIL PEREZ, 260  BLOCO 3, JARDIM UMUARAMA - Itanhaem", "latitude_sede": -24.1823399, "longitude_sede": -46.818223, "fonte_geocodificacao_sede": "Google Geocoding API", "fonte_geometria": null, "qt_municipios": null, "municipios_atendidos": null, "populacao_atendida": null }, "geometry": { "type": "Point", "coordinates": [ -46.818223, -24.1823399 ] } },
{ "type": "Feature", "properties": { "nome_batalhao": "39º BPM/I", "tipo_batalhao": "Interior", "id_comando": "CPI-6", "nome_comando": "6º Comando de Policiamento do Interior (CPI-6)", "cidade_sede": "Sao Vicente", "endereco_sede": "RUA FREITAS GUIMARÃES, 340, JARDIM BOA VISTA - Sao Vicente", "latitude_sede": -23.9692497, "longitude_sede": -46.3718367, "fonte_geocodificacao_sede": "Google Geocoding API", "fonte_geometria": null, "qt_municipios": null, "municipios_atendidos": null, "populacao_atendida": null }, "geometry": { "type": "Point", "coordinates": [ -46.3718367, -23.9692497 ] } },
{ "type": "Feature", "properties": { "nome_batalhao": "45º BPM/I", "tipo_batalhao": "Interior", "id_comando": "CPI-6", "nome_comando": "6º Comando de Policiamento do Interior (CPI-6)", "cidade_sede": "Praia Grande", "endereco_sede": "AVENIDA AYRTON SENNA DA SILVA, 1511, SÍTIO DO CAMPO - Praia Grande", "latitude_sede": -23.9960843, "longitude_sede": -46.4076257, "fonte_geocodificacao_sede": "Google Geocoding API", "fonte_geometria": null, "qt_municipios": null, "municipios_atendidos": null, "populacao_atendida": null }, "geometry": { "type": "Point", "coordinates": [ -46.4076257, -23.9960843 ] } },
{ "type": "Feature", "properties": { "nome_batalhao": "7º BPM/I", "tipo_batalhao": "Interior", "id_comando": "CPI-7", "nome_comando": "7º Comando de Policiamento do Interior (CPI-7)", "cidade_sede": "Sorocaba", "endereco_sede": "AV. PEREIRA DA SILVA, 1285  7º BPM/I, JD. SANTA ROSÁLIA - Sorocaba", "latitude_sede": -23.4870114, "longitude_sede": -47.4441988, "fonte_geocodificacao_sede": "Google Geocoding API", "fonte_geometria": null, "qt_municipios": null, "municipios_atendidos": null, "populacao_atendida": null }, "geometry": { "type": "Point", "coordinates": [ -47.4441988, -23.4870114 ] } },
{ "type": "Feature", "properties": { "nome_batalhao": "12º BPM/I", "tipo_batalhao": "Interior", "id_comando": "CPI-7", "nome_comando": "7º Comando de Policiamento do Interior (CPI-7)", "cidade_sede": "Botucatu", "endereco_sede": "RUA GENERAL JÚLIO MARCONDES SALGADO, 414, VILA SILVINHA - Botucatu", "latitude_sede": -22.8944229, "longitude_sede": -48.4445908, "fonte_geocodificacao_sede": "Google Geocoding API", "fonte_geometria": null, "qt_municipios": null, "municipios_atendidos": null, "populacao_atendida": null }, "geometry": { "type": "Point", "coordinates": [ -48.4445908, -22.8944229 ] } },
{ "type": "Feature", "properties": { "nome_batalhao": "22º BPM/I", "tipo_batalhao": "Interior", "id_comando": "CPI-7", "nome_comando": "7º Comando de Policiamento do Interior (CPI-7)", "cidade_sede": "Itapetininga", "endereco_sede": "RUA DOUTOR COUTINHO/ ITAPETININGA, 2000, VILA JUDITH - Itapetininga", "latitude_sede": -23.5777482, "longitude_sede": -48.0324007, "fonte_geocodificacao_sede": "Google Geocoding API", "fonte_geometria": null, "qt_municipios": null, "municipios_atendidos": null, "populacao_atendida": null }, "geometry": { "type": "Point", "coordinates": [ -48.0324007, -23.5777482 ] } },
{ "type": "Feature", "properties": { "nome_batalhao": "40º BPM/I", "tipo_batalhao": "Interior", "id_comando": "CPI-7", "nome_comando": "7º Comando de Policiamento do Interior (CPI-7)", "cidade_sede": "Votorantim", "endereco_sede": "RUA GUILHERMINA GLÓRIA MONTEIRO RAMOS, 41, JARDIM ICATU - Votorantim", "latitude_sede": -23.5409571, "longitude_sede": -47.4537448, "fonte_geocodificacao_sede": "Google Geocoding API", "fonte_geometria": null, "qt_municipios": null, "municipios_atendidos": null, "populacao_atendida": null }, "geometry": { "type": "Point", "coordinates": [ -47.4537448, -23.5409571 ] } },
{ "type": "Feature", "properties": { "nome_batalhao": "50º BPM/I", "tipo_batalhao": "Interior", "id_comando": "CPI-7", "nome_comando": "7º Comando de Policiamento do Interior (CPI-7)", "cidade_sede": "Itu", "endereco_sede": "RUA ARQ. MÁRCIO JOÃO DE ARRUDA, 400, VILA LEIS - Itu", "latitude_sede": -23.2787559, "longitude_sede": -47.2857834, "fonte_geocodificacao_sede": "Google Geocoding API", "fonte_geometria": null, "qt_municipios": null, "municipios_atendidos": null, "populacao_atendida": null }, "geometry": { "type": "Point", "coordinates": [ -47.2857834, -23.2787559 ] } },
{ "type": "Feature", "properties": { "nome_batalhao": "53º BPM/I", "tipo_batalhao": "Interior", "id_comando": "CPI-7", "nome_comando": "7º Comando de Policiamento do Interior (CPI-7)", "cidade_sede": "Avare", "endereco_sede": "RUA BAHIA, 100, CENTRO - Avare", "latitude_sede": -23.1101681, "longitude_sede": -48.9281151, "fonte_geocodificacao_sede": "Google Geocoding API", "fonte_geometria": null, "qt_municipios": null, "municipios_atendidos": null, "populacao_atendida": null }, "geometry": { "type": "Point", "coordinates": [ -48.9281151, -23.1101681 ] } },
{ "type": "Feature", "properties": { "nome_batalhao": "54º BPM/I", "tipo_batalhao": "Interior", "id_comando": "CPI-7", "nome_comando": "7º Comando de Policiamento do Interior (CPI-7)", "cidade_sede": "Itapeva", "endereco_sede": "RUA CORONEL CRESCÊNCIO/ ITAPEVA, 592, CENTRO - Itapeva", "latitude_sede": -23.9853816, "longitude_sede": -48.8750751, "fonte_geocodificacao_sede": "Google Geocoding API", "fonte_geometria": null, "qt_municipios": null, "municipios_atendidos": null, "populacao_atendida": null }, "geometry": { "type": "Point", "coordinates": [ -48.8750751, -23.9853816 ] } },
{ "type": "Feature", "properties": { "nome_batalhao": "55º BPM/I", "tipo_batalhao": "Interior", "id_comando": "CPI-7", "nome_comando": "7º Comando de Policiamento do Interior (CPI-7)", "cidade_sede": "Sorocaba", "endereco_sede": "AVENIDA GENERAL OSÓRIO, 985, VILA TRUJILLO - Sorocaba", "latitude_sede": -23.4913325, "longitude_sede": -47.4718476, "fonte_geocodificacao_sede": "Google Geocoding API", "fonte_geometria": null, "qt_municipios": null, "municipios_atendidos": null, "populacao_atendida": null }, "geometry": { "type": "Point", "coordinates": [ -47.4718476, -23.4913325 ] } },
{ "type": "Feature", "properties": { "nome_batalhao": "18º BPM/I", "tipo_batalhao": "Interior", "id_comando": "CPI-8", "nome_comando": "8º Comando de Policiamento do Interior (CPI-8)", "cidade_sede": "Presidente Prudente", "endereco_sede": "AVENIDA JOAQUIM CONSTANTINO, 351, VILA FORMOSA - Presidente Prudente", "latitude_sede": -22.1485533, "longitude_sede": -51.3931744, "fonte_geocodificacao_sede": "Google Geocoding API", "fonte_geometria": null, "qt_municipios": null, "municipios_atendidos": null, "populacao_atendida": null }, "geometry": { "type": "Point", "coordinates": [ -51.3931744, -22.1485533 ] } },
{ "type": "Feature", "properties": { "nome_batalhao": "25º BPM/I", "tipo_batalhao": "Interior", "id_comando": "CPI-8", "nome_comando": "8º Comando de Policiamento do Interior (CPI-8)", "cidade_sede": "Dracena", "endereco_sede": "AVENIDA ALCIDES CHACON COUTO, 502, METRÓPOLE - Dracena", "latitude_sede": -21.485574, "longitude_sede": -51.527131, "fonte_geocodificacao_sede": "Google Geocoding API", "fonte_geometria": null, "qt_municipios": null, "municipios_atendidos": null, "populacao_atendida": null }, "geometry": { "type": "Point", "coordinates": [ -51.527131, -21.485574 ] } },
{ "type": "Feature", "properties": { "nome_batalhao": "32º BPM/I", "tipo_batalhao": "Interior", "id_comando": "CPI-8", "nome_comando": "8º Comando de Policiamento do Interior (CPI-8)", "cidade_sede": "Assis", "endereco_sede": "TRAVESSA BRASIL, 275  QUARTEL, VILA FIÚZA - Assis", "latitude_sede": -22.6533095, "longitude_sede": -50.4086137, "fonte_geocodificacao_sede": "Google Geocoding API", "fonte_geometria": null, "qt_municipios": null, "municipios_atendidos": null, "populacao_atendida": null }, "geometry": { "type": "Point", "coordinates": [ -50.4086137, -22.6533095 ] } },
{ "type": "Feature", "properties": { "nome_batalhao": "42º BPM/I", "tipo_batalhao": "Interior", "id_comando": "CPI-8", "nome_comando": "8º Comando de Policiamento do Interior (CPI-8)", "cidade_sede": "Presidente Venceslau", "endereco_sede": "AVENIDA CARLOS PLATZEK, 597, JD COROADOS - Presidente Venceslau", "latitude_sede": -21.8773951, "longitude_sede": -51.8547478, "fonte_geocodificacao_sede": "Google Geocoding API", "fonte_geometria": null, "qt_municipios": null, "municipios_atendidos": null, "populacao_atendida": null }, "geometry": { "type": "Point", "coordinates": [ -51.8547478, -21.8773951 ] } },
{ "type": "Feature", "properties": { "nome_batalhao": "10º BPM/I", "tipo_batalhao": "Interior", "id_comando": "CPI-9", "nome_comando": "9º Comando de Policiamento do Interior (CPI-9)", "cidade_sede": "Piracicaba", "endereco_sede": "RUA AMÉRICO VESPÚCIO, 300, VILA ALGODOAL - Piracicaba", "latitude_sede": -22.7003812, "longitude_sede": -47.6654509, "fonte_geocodificacao_sede": "Google Geocoding API", "fonte_geometria": null, "qt_municipios": null, "municipios_atendidos": null, "populacao_atendida": null }, "geometry": { "type": "Point", "coordinates": [ -47.6654509, -22.7003812 ] } },
{ "type": "Feature", "properties": { "nome_batalhao": "19º BPM/I", "tipo_batalhao": "Interior", "id_comando": "CPI-9", "nome_comando": "9º Comando de Policiamento do Interior (CPI-9)", "cidade_sede": "Americana", "endereco_sede": "AVENIDA ÂNGELO PASCOTE, 130  19º BPM/I, LOTEAMENTO INDUSTRIAL Nossa Senhora de Fátima - Americana", "latitude_sede": -22.7525587, "longitude_sede": -47.3018701, "fonte_geocodificacao_sede": "Google Geocoding API", "fonte_geometria": null, "qt_municipios": null, "municipios_atendidos": null, "populacao_atendida": null }, "geometry": { "type": "Point", "coordinates": [ -47.3018701, -22.7525587 ] } },
{ "type": "Feature", "properties": { "nome_batalhao": "24º BPM/I", "tipo_batalhao": "Interior", "id_comando": "CPI-9", "nome_comando": "9º Comando de Policiamento do Interior (CPI-9)", "cidade_sede": "Sao Joao Da Boa Vista", "endereco_sede": "RUA ODILON DE PAULA GIÃO, 69, JARDIM NOVA SÃO JOÃO - Sao Joao Da Boa Vista", "latitude_sede": -21.9705238, "longitude_sede": -46.7807548, "fonte_geocodificacao_sede": "Google Geocoding API", "fonte_geometria": null, "qt_municipios": null, "municipios_atendidos": null, "populacao_atendida": null }, "geometry": { "type": "Point", "coordinates": [ -46.7807548, -21.9705238 ] } },
{ "type": "Feature", "properties": { "nome_batalhao": "36º BPM/I", "tipo_batalhao": "Interior", "id_comando": "CPI-9", "nome_comando": "9º Comando de Policiamento do Interior (CPI-9)", "cidade_sede": "Limeira", "endereco_sede": "ACESSO JOÃO PICININI, 100, JARDIM DAS LARANJEIRAS - Limeira", "latitude_sede": -22.5441095, "longitude_sede": -47.4151914, "fonte_geocodificacao_sede": "Google Geocoding API", "fonte_geometria": null, "qt_municipios": null, "municipios_atendidos": null, "populacao_atendida": null }, "geometry": { "type": "Point", "coordinates": [ -47.4151914, -22.5441095 ] } },
{ "type": "Feature", "properties": { "nome_batalhao": "37º BPM/I", "tipo_batalhao": "Interior", "id_comando": "CPI-9", "nome_comando": "9º Comando de Policiamento do Interior (CPI-9)", "cidade_sede": "Rio Claro", "endereco_sede": "RODOVIA WASHINGTON LUIS KM, 172, JARDIM ANHANGUERA - Rio Claro", "latitude_sede": -22.4370491, "longitude_sede": -47.5699382, "fonte_geocodificacao_sede": "Google Geocoding API", "fonte_geometria": null, "qt_municipios": null, "municipios_atendidos": null, "populacao_atendida": null }, "geometry": { "type": "Point", "coordinates": [ -47.5699382, -22.4370491 ] } },
{ "type": "Feature", "properties": { "nome_batalhao": "48º BPM/I", "tipo_batalhao": "Interior", "id_comando": "CPI-9", "nome_comando": "9º Comando de Policiamento do Interior (CPI-9)", "cidade_sede": "Sumare", "endereco_sede": "AV. REBOUÇAS, 2796, VILA YOLANDA - Sumare", "latitude_sede": -22.812777, "longitude_sede": -47.2791211, "fonte_geocodificacao_sede": "Google Geocoding API", "fonte_geometria": null, "qt_municipios": null, "municipios_atendidos": null, "populacao_atendida": null }, "geometry": { "type": "Point", "coordinates": [ -47.2791211, -22.812777 ] } }
]
}
