{
"type": "FeatureCollection",
"name": "pm_comandos_pontos_sp.geojson",
"crs": { "type": "name", "properties": { "name": "urn:ogc:def:crs:OGC:1.3:CRS84" } },
"features": [
{ "type": "Feature", "properties": { "id_comando": "CPA/M-1", "nome_comando": "1º Comando de Policiamento de Área Metropolitana (CPA/M-1)", "tipo_comando": "metropolitano", "qt_batalhoes": 3, "cidade_sede": "Sao Paulo", "endereco_sede": "AVENIDA ANGELICA, 1647, HIGIENÓPOLIS - Sao Paulo", "latitude": -23.5470351, "longitude": -46.6580278, "fonte_geocodificacao": "Aproximado: sem sede administrativa própria no cadastro OPM; usada a sede do 7º BPM/M (Google Geocoding API)", "telefone": null, "email": null, "fonte_contato": null, "opm_nome": "7. BATALHAO DE POLICIA MILITAR METROPOLITANO", "opm_codigo": "501070000" }, "geometry": { "type": "Point", "coordinates": [ -46.6580278, -23.5470351 ] } },
{ "type": "Feature", "properties": { "id_comando": "CPA/M-10", "nome_comando": "10º Comando de Policiamento de Área Metropolitana (CPA/M-10)", "tipo_comando": "metropolitano", "qt_batalhoes": 4, "cidade_sede": "Sao Paulo", "endereco_sede": "RUA DOUTOR RUBENS GOMES BUENO, 231, SANTO AMARO - Sao Paulo", "latitude": -23.6430749, "longitude": -46.7196937, "fonte_geocodificacao": "Google Geocoding API", "telefone": null, "email": "cpam10p5@policiamilitar.sp.gov.br", "fonte_contato": "E-mail não verificado (agregador terceiro)", "opm_nome": "COMANDO DE POLICIAMENTO DE AREA METROPOLITANA-10", "opm_codigo": "510000000" }, "geometry": { "type": "Point", "coordinates": [ -46.7196937, -23.6430749 ] } },
{ "type": "Feature", "properties": { "id_comando": "CPA/M-11", "nome_comando": "11º Comando de Policiamento de Área Metropolitana (CPA/M-11)", "tipo_comando": "metropolitano", "qt_batalhoes": 2, "cidade_sede": "Sao Paulo", "endereco_sede": "RUA VILELA, 307, TATUAPE - Sao Paulo", "latitude": -23.5370472, "longitude": -46.5666114, "fonte_geocodificacao": "Aproximado: sem sede administrativa própria no cadastro OPM; usada a sede do 8º BPM/M (Google Geocoding API)", "telefone": "(11) 295-3614", "email": "cpam11p4@polmil.sp.gov.br", "fonte_contato": "Não verificado (agregador terceiro)", "opm_nome": "8. BATALHAO DE POLICIA MILITAR METROPOLITANO", "opm_codigo": "511080000" }, "geometry": { "type": "Point", "coordinates": [ -46.5666114, -23.5370472 ] } },
{ "type": "Feature", "properties": { "id_comando": "CPA/M-12", "nome_comando": "12º Comando de Policiamento de Área Metropolitana (CPA/M-12)", "tipo_comando": "metropolitano", "qt_batalhoes": 3, "cidade_sede": "Mogi Das Cruzes", "endereco_sede": "RUA CORONEL SOUZA FRANCO, 1010 - MOGI DAS CRUZES, 1010, CENTRO - Mogi Das Cruzes", "latitude": -23.5220504, "longitude": -46.1877693, "fonte_geocodificacao": "Google Geocoding API", "telefone": null, "email": null, "fonte_contato": null, "opm_nome": "CPA/M-12 COPOM", "opm_codigo": "412002300" }, "geometry": { "type": "Point", "coordinates": [ -46.1877693, -23.5220504 ] } },
{ "type": "Feature", "properties": { "id_comando": "CPA/M-2", "nome_comando": "2º Comando de Policiamento de Área Metropolitana (CPA/M-2)", "tipo_comando": "metropolitano", "qt_batalhoes": 3, "cidade_sede": "Sao Paulo", "endereco_sede": "RUA RAFAEL IORIO, 160, CAMPO BELO - Sao Paulo", "latitude": -23.6269802, "longitude": -46.6624975, "fonte_geocodificacao": "Google Geocoding API", "telefone": "(11) 3546-1333", "email": "cpam2@policiamilitar.sp.gov.br", "fonte_contato": "Verificado (policiamilitar.sp.gov.br)", "opm_nome": "AGENCIA REGIONAL", "opm_codigo": "502004000" }, "geometry": { "type": "Point", "coordinates": [ -46.6624975, -23.6269802 ] } },
{ "type": "Feature", "properties": { "id_comando": "CPA/M-3", "nome_comando": "3º Comando de Policiamento de Área Metropolitana (CPA/M-3)", "tipo_comando": "metropolitano", "qt_batalhoes": 4, "cidade_sede": "Sao Paulo", "endereco_sede": "RUA SAO MARCELO, 399, VILA PEDROSA - Sao Paulo", "latitude": -23.4873928, "longitude": -46.5955182, "fonte_geocodificacao": "Aproximado: sem sede administrativa própria no cadastro OPM; usada a sede do 5º BPM/M (Google Geocoding API)", "telefone": "(11) 2287-6306", "email": "cpam3uge@policiamilitar.sp.gov.br", "fonte_contato": "Não verificado (agregador terceiro)", "opm_nome": "5. BATALHAO DE POLICIA MILITAR METROPOLITANO", "opm_codigo": "503050000" }, "geometry": { "type": "Point", "coordinates": [ -46.5955182, -23.4873928 ] } },
{ "type": "Feature", "properties": { "id_comando": "CPA/M-4", "nome_comando": "4º Comando de Policiamento de Área Metropolitana (CPA/M-4)", "tipo_comando": "metropolitano", "qt_batalhoes": 4, "cidade_sede": "Sao Paulo", "endereco_sede": "AVENIDA AMADOR BUENO DA VEIGA, 2774, PENHA - Sao Paulo", "latitude": -23.5229278, "longitude": -46.5184075, "fonte_geocodificacao": "Aproximado: sem sede administrativa própria no cadastro OPM; usada a sede do 2º BPM/M (Google Geocoding API)", "telefone": null, "email": "cpam4uge@polmil.sp.gov.br", "fonte_contato": "E-mail não verificado (agregador terceiro); telefone descartado (DDD \"01\" inválido na fonte)", "opm_nome": "2. BATALHAO DE POLICIA MILITAR METROPOLITANO", "opm_codigo": "504020000" }, "geometry": { "type": "Point", "coordinates": [ -46.5184075, -23.5229278 ] } },
{ "type": "Feature", "properties": { "id_comando": "CPA/M-5", "nome_comando": "5º Comando de Policiamento de Área Metropolitana (CPA/M-5)", "tipo_comando": "metropolitano", "qt_batalhoes": 4, "cidade_sede": "Sao Paulo", "endereco_sede": "RUA PASSO DA PATRIA, 1601  4º BPM/M, VILA LEOPOLDINA - Sao Paulo", "latitude": -23.5239185, "longitude": -46.7323888, "fonte_geocodificacao": "Aproximado: sem sede administrativa própria no cadastro OPM; usada a sede do 4º BPM/M (Google Geocoding API)", "telefone": "(11) 3769-2014", "email": null, "fonte_contato": "Não verificado (agregador terceiro)", "opm_nome": "4.BATALHAO DE POLICIA MILITAR METROPOLITANO", "opm_codigo": "505040000" }, "geometry": { "type": "Point", "coordinates": [ -46.7323888, -23.5239185 ] } },
{ "type": "Feature", "properties": { "id_comando": "CPA/M-6", "nome_comando": "6º Comando de Policiamento de Área Metropolitana (CPA/M-6)", "tipo_comando": "metropolitano", "qt_batalhoes": 5, "cidade_sede": "Santo Andre", "endereco_sede": "RUA SILVEIRAS, 20, VILA GUIOMAR - Santo Andre", "latitude": -23.651557, "longitude": -46.5459684, "fonte_geocodificacao": "Google Geocoding API", "telefone": "(11) 4436-4991", "email": null, "fonte_contato": "Não verificado (agregador terceiro)", "opm_nome": "CPA/M-6 CENTRO DE OPERACOES DA POLICIA MILITAR", "opm_codigo": "406002300" }, "geometry": { "type": "Point", "coordinates": [ -46.5459684, -23.651557 ] } },
{ "type": "Feature", "properties": { "id_comando": "CPA/M-7", "nome_comando": "7º Comando de Policiamento de Área Metropolitana (CPA/M-7)", "tipo_comando": "metropolitano", "qt_batalhoes": 3, "cidade_sede": "Guarulhos", "endereco_sede": "RUA HUMBERTO DE CAMPOS, 715, GOPOUVA - Guarulhos", "latitude": -23.462879, "longitude": -46.5383519, "fonte_geocodificacao": "Aproximado: sem sede administrativa própria no cadastro OPM; usada a sede do 15º BPM/M (Google Geocoding API)", "telefone": null, "email": "cpam7uge@polmil.sp.gov.br", "fonte_contato": "E-mail não verificado (agregador terceiro); telefone descartado (DDD \"01\" inválido na fonte)", "opm_nome": "15. BATALHAO DE POLICIA MILITAR METROPOLITANO", "opm_codigo": "407150000" }, "geometry": { "type": "Point", "coordinates": [ -46.538351899999988, -23.462879 ] } },
{ "type": "Feature", "properties": { "id_comando": "CPA/M-8", "nome_comando": "8º Comando de Policiamento de Área Metropolitana (CPA/M-8)", "tipo_comando": "metropolitano", "qt_batalhoes": 5, "cidade_sede": "Osasco", "endereco_sede": "RUA LÍBERO CARNICELI, 433, JAGUARIBE - Osasco", "latitude": -23.5557057, "longitude": -46.7850521, "fonte_geocodificacao": "Aproximado: sem sede administrativa própria no cadastro OPM; usada a sede do 14º BPM/M (Google Geocoding API)", "telefone": null, "email": null, "fonte_contato": null, "opm_nome": "14. BATALHAO DE POLICIA MILITAR METROPOLITANO", "opm_codigo": "408140000" }, "geometry": { "type": "Point", "coordinates": [ -46.785052099999987, -23.5557057 ] } },
{ "type": "Feature", "properties": { "id_comando": "CPA/M-9", "nome_comando": "9º Comando de Policiamento de Área Metropolitana (CPA/M-9)", "tipo_comando": "metropolitano", "qt_batalhoes": 3, "cidade_sede": "Sao Paulo", "endereco_sede": "AVENIDA SAPOPEMBA, 12370, Jardim Adutora - Sao Paulo", "latitude": -23.6123789, "longitude": -46.4876854, "fonte_geocodificacao": "Google Geocoding API", "telefone": null, "email": null, "fonte_contato": null, "opm_nome": "DIVISAO OPERACIONAL E GABINETE DE TREINAMENTO", "opm_codigo": "509002000" }, "geometry": { "type": "Point", "coordinates": [ -46.4876854, -23.6123789 ] } },
{ "type": "Feature", "properties": { "id_comando": "CPI-1", "nome_comando": "1º Comando de Policiamento do Interior (CPI-1)", "tipo_comando": "interior", "qt_batalhoes": 6, "cidade_sede": "Sao Jose Dos Campos", "endereco_sede": "AVENIDA DEPUTADO BENEDITO MATARAZZO, 9931  CPI-1, JARDIM AUGUSTA - Sao Jose Dos Campos", "latitude": -23.196811, "longitude": -45.8760997, "fonte_geocodificacao": "Google Geocoding API", "telefone": "(12) 3922-9666", "email": "cpi1@policiamilitar.sp.gov.br", "fonte_contato": "Verificado (policiamilitar.sp.gov.br)", "opm_nome": "CENTRO DE OPERACOES DA POLICIA MILITAR", "opm_codigo": "601003500" }, "geometry": { "type": "Point", "coordinates": [ -45.8760997, -23.196811 ] } },
{ "type": "Feature", "properties": { "id_comando": "CPI-10", "nome_comando": "10º Comando de Policiamento do Interior (CPI-10)", "tipo_comando": "interior", "qt_batalhoes": 2, "cidade_sede": "Aracatuba", "endereco_sede": "RUA CAPITAO ALBERTO MENDES JUNIOR, 238, AVIAÇÃO - Aracatuba", "latitude": -21.1959925, "longitude": -50.4320202, "fonte_geocodificacao": "Google Geocoding API", "telefone": "(18) 2102-5200", "email": null, "fonte_contato": "Não verificado (agregador terceiro)", "opm_nome": "CPI-10 DIV ADM SEC ADM", "opm_codigo": "610001100" }, "geometry": { "type": "Point", "coordinates": [ -50.4320202, -21.1959925 ] } },
{ "type": "Feature", "properties": { "id_comando": "CPI-2", "nome_comando": "2º Comando de Policiamento do Interior (CPI-2)", "tipo_comando": "interior", "qt_batalhoes": 7, "cidade_sede": "Campinas", "endereco_sede": "AVENIDA JOÃO JORGE, 499, CENTRO - Campinas", "latitude": -22.9148548, "longitude": -47.0639855, "fonte_geocodificacao": "Google Geocoding API", "telefone": "(19) 3772-6777", "email": null, "fonte_contato": "Não verificado (agregador terceiro)", "opm_nome": "CPI-2 DPT A E PLAN OP DIV OP COPOM", "opm_codigo": "602002220" }, "geometry": { "type": "Point", "coordinates": [ -47.0639855, -22.9148548 ] } },
{ "type": "Feature", "properties": { "id_comando": "CPI-3", "nome_comando": "3º Comando de Policiamento do Interior (CPI-3)", "tipo_comando": "interior", "qt_batalhoes": 7, "cidade_sede": "Ribeirao Preto", "endereco_sede": "AVENIDA CAVALHEIRO PASCHOAL INECHI, 1538, JARDIM INDEPÊNDENCIA - Ribeirao Preto", "latitude": -21.1565907, "longitude": -47.7844688, "fonte_geocodificacao": "Google Geocoding API", "telefone": "(16) 3969-9998", "email": null, "fonte_contato": "Não verificado (agregador terceiro; fontes divergem entre ...9998 e ...9999)", "opm_nome": "CENTRO DE OPERACOES DA POLICIA MILITAR", "opm_codigo": "603001230" }, "geometry": { "type": "Point", "coordinates": [ -47.7844688, -21.1565907 ] } },
{ "type": "Feature", "properties": { "id_comando": "CPI-4", "nome_comando": "4º Comando de Policiamento do Interior (CPI-4)", "tipo_comando": "interior", "qt_batalhoes": 5, "cidade_sede": "Bauru", "endereco_sede": "Rua Major Fonseca Osório, 465, Vila Antártica - Bauru", "latitude": -22.3144418, "longitude": -49.0637471, "fonte_geocodificacao": "Google Geocoding API", "telefone": "(14) 3222-3172", "email": null, "fonte_contato": "Não verificado (agregador terceiro)", "opm_nome": "SECAO ADMINISTRATIVA E COMUNICACAO SOCIAL", "opm_codigo": "604002100" }, "geometry": { "type": "Point", "coordinates": [ -49.0637471, -22.3144418 ] } },
{ "type": "Feature", "properties": { "id_comando": "CPI-5", "nome_comando": "5º Comando de Policiamento do Interior (CPI-5)", "tipo_comando": "interior", "qt_batalhoes": 4, "cidade_sede": "Sao Jose Do Rio Preto", "endereco_sede": "AVENIDA DOS ESTUDANTES, 1980, BOA VISTA - Sao Jose Do Rio Preto", "latitude": -20.8106469, "longitude": -49.3932043, "fonte_geocodificacao": "Google Geocoding API", "telefone": "(17) 3231-7771", "email": null, "fonte_contato": "Não verificado (agregador terceiro)", "opm_nome": "TELECOMUNICOES", "opm_codigo": "605002211" }, "geometry": { "type": "Point", "coordinates": [ -49.3932043, -20.8106469 ] } },
{ "type": "Feature", "properties": { "id_comando": "CPI-6", "nome_comando": "6º Comando de Policiamento do Interior (CPI-6)", "tipo_comando": "interior", "qt_batalhoes": 6, "cidade_sede": "Santos", "endereco_sede": "AVENIDA CORONEL JOAQUIM MONTENEGRO, 282, PONTA DA PRAIA - Santos", "latitude": -23.9810976, "longitude": -46.3051527, "fonte_geocodificacao": "Google Geocoding API", "telefone": null, "email": null, "fonte_contato": null, "opm_nome": "CENTRO DE OPERACOES DA POLICIA MILITAR", "opm_codigo": "606002220" }, "geometry": { "type": "Point", "coordinates": [ -46.3051527, -23.9810976 ] } },
{ "type": "Feature", "properties": { "id_comando": "CPI-7", "nome_comando": "7º Comando de Policiamento do Interior (CPI-7)", "tipo_comando": "interior", "qt_batalhoes": 8, "cidade_sede": "Sorocaba", "endereco_sede": "RUA BENTO MANUEL RIBEIRO, 209, JARDIM RADIO CLUB - Sorocaba", "latitude": -23.5036701, "longitude": -47.4829101, "fonte_geocodificacao": "Google Geocoding API", "telefone": "(15) 3229-3943", "email": null, "fonte_contato": "Não verificado (agregador terceiro)", "opm_nome": "SECAO ADMINISTRATIVA E COMUNICACAO SOCIAL", "opm_codigo": "607002100" }, "geometry": { "type": "Point", "coordinates": [ -47.4829101, -23.5036701 ] } },
{ "type": "Feature", "properties": { "id_comando": "CPI-8", "nome_comando": "8º Comando de Policiamento do Interior (CPI-8)", "tipo_comando": "interior", "qt_batalhoes": 4, "cidade_sede": "Presidente Prudente", "endereco_sede": "AVENIDA JOAQUIM CONSTANTINO, 351, PQ HIGIENOPOLIS - Presidente Prudente", "latitude": -22.1485533, "longitude": -51.3931744, "fonte_geocodificacao": "Google Geocoding API", "telefone": "(18) 3221-8990", "email": null, "fonte_contato": "Não verificado (agregador terceiro)", "opm_nome": "SETOR DE TELECOMUNICACOES", "opm_codigo": "608002110" }, "geometry": { "type": "Point", "coordinates": [ -51.3931744, -22.1485533 ] } },
{ "type": "Feature", "properties": { "id_comando": "CPI-9", "nome_comando": "9º Comando de Policiamento do Interior (CPI-9)", "tipo_comando": "interior", "qt_batalhoes": 6, "cidade_sede": "Piracicaba", "endereco_sede": "RUA AMÉRICO VESPÚCIO, 438, VILA ALGODAO - Piracicaba", "latitude": -22.7004843, "longitude": -47.6673404, "fonte_geocodificacao": "Google Geocoding API", "telefone": "(19) 3421-4515", "email": "cpi9uge@polmil.sp.gov.br", "fonte_contato": "Não verificado (agregador terceiro; outra fonte lista (19) 3413-0550)", "opm_nome": "CENTRO DE OPERACOES DA POLICIA MILITAR", "opm_codigo": "609008620" }, "geometry": { "type": "Point", "coordinates": [ -47.6673404, -22.7004843 ] } }
]
}
